NORAD_CAT_ID,OBJECT_NAME,OBJECT_TYPE,EPOCH,MEAN_MOTION,ECCENTRICITY,INCLINATION,RA_OF_ASC_NODE,ARG_OF_PERICENTER,MEAN_ANOMALY,BSTAR,MEAN_MOTION_DOT,MEAN_MOTION_DDOT,TLE_LINE0,TLE_LINE1,TLE_LINE2,SEMIMAJOR_AXIS,PERIOD,APOGEE,PERIGEE,DECAYED
51785.0,STARLINK-3646,PAYLOAD,2023-01-17 03:59:18,15.08824667,0.0002715,53.2151,90.5684,69.2507,290.8776,-0.00015111,-2.692e-05,0.0,0 STARLINK-3646,1 51785U 22017T   23017.16618238 -.00002692  00000-0 -15111-3 0  9999,2 51785  53.2151  90.5684 0002715  69.2507 290.8776 15.08824667 50877,6917.927,95.439,541.67,537.914,0.0
51785.0,STARLINK-3646,PAYLOAD,2023-01-18 08:36:13,15.08855507,0.0001686,53.2151,85.2143,54.87,305.245,-9.6708e-05,-1.828e-05,0.0,0 STARLINK-3646,1 51785U 22017T   23018.35849141 -.00001828  00000-0 -96708-4 0  9992,2 51785  53.2151  85.2143 0001686  54.8700 305.2450 15.08855507 51057,6917.8330000000005,95.437,540.864,538.5319999999999,0.0
51785.0,STARLINK-3646,PAYLOAD,2023-01-18 13:22:22,15.088624800000002,0.0001872,53.2157,84.3216,58.4777,301.6397,-3.3234e-05,-8.17e-06,0.0,0 STARLINK-3646,1 51785U 22017T   23018.55720476 -.00000817  00000-0 -33234-4 0  9995,2 51785  53.2157  84.3216 0001872  58.4777 301.6397 15.08862480 49397,6917.812,95.436,540.972,538.382,0.0
51785.0,STARLINK-3646,PAYLOAD,2023-01-18 21:19:17,15.08872646,0.0001886999999999,53.217,82.8348,68.4439,291.6754,-0.00019539,-3.399e-05,0.0,0 STARLINK-3646,1 51785U 22017T   23018.88839595 -.00003399  00000-0 -19539-3 0  9993,2 51785  53.2170  82.8348 0001887  68.4439 291.6754 15.08872646 51138,6917.781,95.435,540.951,538.34,0.0
51785.0,STARLINK-3646,PAYLOAD,2023-01-19 03:40:51,15.08835926,0.0001914,53.2165,81.6491,85.2501,274.8709,0.00038099,5.78e-05,0.0,0 STARLINK-3646,1 51785U 22017T   23019.15337063  .00005780  00000-0  38099-3 0  9993,2 51785  53.2165  81.6491 0001914  85.2501 274.8709 15.08835926 51173,6917.893,95.438,541.082,538.434,0.0
51785.0,STARLINK-3646,PAYLOAD,2023-01-19 10:02:23,15.08842757,0.0001942,53.2165,80.4598,84.7796,275.3417,0.00040355,6.141e-05,0.0,0 STARLINK-3646,1 51785U 22017T   23019.41832728  .00006141  00000-0  40355-3 0  9990,2 51785  53.2165  80.4598 0001942  84.7796 275.3417 15.08842757 49527,6917.871999999999,95.437,541.08,538.394,0.0
51785.0,STARLINK-3646,PAYLOAD,2023-01-19 11:37:45,15.08856032,0.0001214,53.2166,80.1575,57.5828,302.5282,0.00045561,6.974e-05,0.0,0 STARLINK-3646,1 51785U 22017T   23019.48455839  .00006974  00000-0  45561-3 0  9999,2 51785  53.2166  80.1575 0001214  57.5828 302.5282 15.08856032 51220,6917.831,95.437,540.536,538.857,0.0
51785.0,STARLINK-3646,PAYLOAD,2023-01-19 22:45:29,15.08847326,0.0001943999999999,53.2148,78.079,75.9957,284.1251,8.0199e-05,9.89e-06,0.0,0 STARLINK-3646,1 51785U 22017T   23019.94825409  .00000989  00000-0  80199-4 0  9991,2 51785  53.2148  78.0790 0001944  75.9957 284.1251 15.08847326 51296,6917.858,95.437,541.068,538.378,0.0
51785.0,STARLINK-3646,PAYLOAD,2023-01-20 09:53:10,15.08842681,0.0001585999999999,53.2143,75.9942,102.5372,257.5797,-4.7103e-05,-1.038e-05,0.0,0 STARLINK-3646,1 51785U 22017T   23020.41192979 -.00001038  00000-0 -47103-4 0  9990,2 51785  53.2143  75.9942 0001586 102.5372 257.5797 15.08842681 49673,6917.871999999999,95.437,540.8340000000001,538.64,0.0
51785.0,STARLINK-3646,PAYLOAD,2023-01-21 06:33:12,15.08836971,0.0001665999999999,53.2154,72.1313,83.1412,276.97700000000003,-9.1706e-05,-1.747e-05,0.0,0 STARLINK-3646,1 51785U 22017T   23021.27306029 -.00001747  00000-0 -91706-4 0  9993,2 51785  53.2154  72.1313 0001666  83.1412 276.9770 15.08836971 51498,6917.89,95.438,540.9069999999999,538.602,0.0
51785.0,STARLINK-3646,PAYLOAD,2023-01-21 11:19:21,15.08847298,0.0001585,53.215,71.237,88.9958,271.1216,-7.806e-05,-1.53e-05,0.0,0 STARLINK-3646,1 51785U 22017T   23021.47177273 -.00001530  00000-0 -78060-4 0  9990,2 51785  53.2150  71.2370 0001585  88.9958 271.1216 15.08847298 51525,6917.858,95.437,540.82,538.627,0.0
51785.0,STARLINK-3646,PAYLOAD,2023-01-22 12:45:30,15.08855698,0.0001551,53.2154,66.4769,95.2248,264.8921,0.00032755,4.931e-05,0.0,0 STARLINK-3646,1 51785U 22017T   23022.53160651  .00004931  00000-0  32755-3 0  9996,2 51785  53.2154  66.4769 0001551  95.2248 264.8921 15.08855698 51685,6917.831999999999,95.437,540.77,538.624,0.0
51785.0,STARLINK-3646,PAYLOAD,2023-01-23 04:39:23,15.08831258,0.0001385,53.215,63.508,86.1142,274.0008,9.7994e-05,1.272e-05,0.0,0 STARLINK-3646,1 51785U 22017T   23023.19402092  .00001272  00000-0  97994-4 0  9999,2 51785  53.2150  63.5080 0001385  86.1142 274.0008 15.08831258 51788,6917.906999999999,95.438,540.73,538.814,0.0
51785.0,STARLINK-3646,PAYLOAD,2023-01-23 12:36:18,15.08844007,0.0001498,53.214,62.0184,96.7963,263.3199,0.00015648,2.204e-05,0.0,0 STARLINK-3646,1 51785U 22017T   23023.52521380  .00002204  00000-0  15648-3 0  9999,2 51785  53.2140  62.0184 0001498  96.7963 263.3199 15.08844007 51833,6917.868,95.437,540.769,538.697,0.0
51785.0,STARLINK-3646,PAYLOAD,2023-01-23 18:57:51,15.08835234,0.0002302,53.2154,60.8284,84.3294,275.7961,-2.3494e-05,-6.62e-06,0.0,0 STARLINK-3646,1 51785U 22017T   23023.79018060 -.00000662  00000-0 -23494-4 0  9991,2 51785  53.2154  60.8284 0002302  84.3294 275.7961 15.08835234 51870,6917.895,95.438,541.352,538.1669999999999,0.0
51785.0,STARLINK-3646,PAYLOAD,2023-01-24 09:16:19,15.08844311,0.0001488,53.214,58.1535,98.263,261.8531,9.8806e-05,1.285e-05,0.0,0 STARLINK-3646,1 51785U 22017T   23024.38633592  .00001285  00000-0  98806-4 0  9999,2 51785  53.2140  58.1535 0001488  98.2630 261.8531 15.08844311 51961,6917.866999999999,95.437,540.762,538.703,0.0
51785.0,STARLINK-3646,PAYLOAD,2023-01-25 05:56:20,15.08837518,0.0001355,53.2147,54.2871,101.7906,258.3238,0.00018856,2.714e-05,0.0,0 STARLINK-3646,1 51785U 22017T   23025.24746128  .00002714  00000-0  18856-3 0  9999,2 51785  53.2147  54.2871 0001355 101.7906 258.3238 15.08837518 52098,6917.888000000001,95.438,540.69,538.816,0.0
51785.0,STARLINK-3646,PAYLOAD,2023-01-25 09:07:06,15.08841597,0.0001368,53.2145,53.6928,95.8218,264.2931,0.00022725,3.331e-05,0.0,0 STARLINK-3646,1 51785U 22017T   23025.37993977  .00003331  00000-0  22725-3 0  9995,2 51785  53.2145  53.6928 0001368  95.8218 264.2931 15.08841597 50428,6917.876,95.437,540.687,538.794,0.0
51785.0,STARLINK-3646,PAYLOAD,2023-01-25 18:39:25,15.08840979,0.0001322,53.215,51.9085,101.55,258.5641,0.00010462,1.378e-05,0.0,0 STARLINK-3646,1 51785U 22017T   23025.77737977  .00001378  00000-0  10462-3 0  9999,2 51785  53.2150  51.9085 0001322 101.5500 258.5641 15.08840979 50481,6917.877,95.437,540.6569999999999,538.828,0.0
51785.0,STARLINK-3646,PAYLOAD,2023-01-26 07:22:30,15.08844404,0.0001318,53.2146,49.5293,95.9276,264.1867,0.00016815,2.39e-05,0.0,0 STARLINK-3646,1 51785U 22017T   23026.30729912  .00002390  00000-0  16815-3 0  9992,2 51785  53.2146  49.5293 0001318  95.9276 264.1867 15.08844404 52258,6917.866999999999,95.437,540.644,538.82,0.0
51785.0,STARLINK-3646,PAYLOAD,2023-01-26 08:57:53,15.08847346,0.0001315,53.2147,49.2319,95.215,264.8992,0.00020545,2.984e-05,0.0,0 STARLINK-3646,1 51785U 22017T   23026.37353778  .00002984  00000-0  20545-3 0  9996,2 51785  53.2147  49.2319 0001315  95.2150 264.8992 15.08847346 50573,6917.858,95.437,540.633,538.813,0.0
51785.0,STARLINK-3646,PAYLOAD,2023-01-27 00:51:45,15.08837612,0.0001416999999999,53.2155,46.2582,103.0549,257.0602,9.6331e-05,1.245e-05,0.0,0 STARLINK-3646,1 51785U 22017T   23027.03594321  .00001245  00000-0  96331-4 0  9997,2 51785  53.2155  46.2582 0001417 103.0549 257.0602 15.08837612 52360,6917.888000000001,95.438,540.7330000000001,538.7719999999999,0.0
51785.0,STARLINK-3646,PAYLOAD,2023-01-27 08:48:41,15.08839134,0.0001281,53.2162,44.7708,91.3117,268.8022,0.00011797,1.59e-05,0.0,0 STARLINK-3646,1 51785U 22017T   23027.36714517  .00001590  00000-0  11797-3 0  9999,2 51785  53.2162  44.7708 0001281  91.3117 268.8022 15.08839134 50725,6917.883000000001,95.438,540.634,538.862,0.0
51785.0,STARLINK-3646,PAYLOAD,2023-01-28 05:28:41,15.08841916,0.0001271,53.2157,40.9041,100.462,259.6516,0.00016656,2.364e-05,0.0,0 STARLINK-3646,1 51785U 22017T   23028.22826269  .00002364  00000-0  16656-3 0  9992,2 51785  53.2157  40.9041 0001271 100.4620 259.6516 15.08841916 52546,6917.875,95.437,540.619,538.86,0.0
51785.0,STARLINK-3646,PAYLOAD,2023-01-28 07:04:04,15.08845218,0.0001372,53.2156,40.6064,106.0683,254.0461,0.00012275,1.666e-05,0.0,0 STARLINK-3646,1 51785U 22017T   23028.29450082  .00001666  00000-0  12275-3 0  9992,2 51785  53.2156  40.6064 0001372 106.0683 254.0461 15.08845218 50860,6917.864,95.437,540.679,538.78,0.0
51785.0,STARLINK-3646,PAYLOAD,2023-01-28 18:11:46,15.08845844,0.0001355,53.2157,38.525,98.851,261.2636,9.4306e-05,1.214e-05,0.0,0 STARLINK-3646,1 51785U 22017T   23028.75818015  .00001214  00000-0  94306-4 0  9992,2 51785  53.2157  38.5250 0001355  98.8510 261.2636 15.08845844 50939,6917.863,95.437,540.665,538.79,0.0
51785.0,STARLINK-3646,PAYLOAD,2023-01-29 06:54:51,15.08844466,0.0001346,53.2163,36.1458,105.5673,254.5468,0.00012597,1.718e-05,0.0,0 STARLINK-3646,1 51785U 22017T   23029.28809900  .00001718  00000-0  12597-3 0  9994,2 51785  53.2163  36.1458 0001346 105.5673 254.5468 15.08844466 52700,6917.867,95.437,540.663,538.801,0.0
51785.0,STARLINK-3646,PAYLOAD,2023-01-29 10:05:37,15.08846436,0.0001347,53.2162,35.5509,104.8124,255.3018,0.00013787,1.907e-05,0.0,0 STARLINK-3646,1 51785U 22017T   23029.42057715  .00001907  00000-0  13787-3 0  9991,2 51785  53.2162  35.5509 0001347 104.8124 255.3018 15.08846436 51037,6917.861,95.437,540.658,538.794,0.0
51785.0,STARLINK-3646,PAYLOAD,2023-01-30 08:21:02,15.08843338,0.0001235,53.2164,31.3886,95.723,264.3903,5.0941e-05,5.23e-06,0.0,0 STARLINK-3646,1 51785U 22017T   23030.34794012  .00000523  00000-0  50941-4 0  9999,2 51785  53.2164  31.3886 0001235  95.7230 264.3903 15.08843338 52866,6917.87,95.437,540.59,538.881,0.0
